{
  "type": "FeatureCollection",
  "features": [
    {
      "type": "Feature",
      "properties": {
        "norad_id": 58647,
        "name": "TIANMU-1 13",
        "group": "weather",
        "lat": -17.938754063002573,
        "lon": -175.2182227989833,
        "alt_km": 495.56057883157155,
        "timestamp": "2025-12-13T13:34:34.722083+00:00",
        "meta_object_name": "TIANMU-1 13",
        "meta_object_id": "2023-205C",
        "meta_epoch": "2025-12-13T00:06:28.507968",
        "meta_mean_motion": 15.24530597,
        "meta_eccentricity": 0.00060334,
        "meta_inclination": 97.3628,
        "meta_ra_of_asc_node": 6.6295,
        "meta_arg_of_pericenter": 265.7644,
        "meta_mean_anomaly": 94.2905,
        "meta_ephemeris_type": 0,
        "meta_classification_type": "U",
        "meta_norad_cat_id": 58647,
        "meta_element_set_no": 999,
        "meta_rev_at_epoch": 10911,
        "meta_bstar": 0.00039482767,
        "meta_mean_motion_dot": 9.653e-05,
        "meta_mean_motion_ddot": 0,
        "tle_line1": "1 58647U 23205C   25347.00449662  .00009653  00000+0  39483-3 0  9996",
        "tle_line2": "2 58647  97.3628   6.6295 0006033 265.7644  94.2905 15.24530597109113"
      },
      "geometry": {
        "type": "Point",
        "coordinates": [
          -175.2182227989833,
          -17.938754063002573
        ]
      }
    },
    {
      "type": "Feature",
      "properties": {
        "norad_id": 58648,
        "name": "TIANMU-1 14",
        "group": "weather",
        "lat": -69.66214165247015,
        "lon": 26.926331044193937,
        "alt_km": 495.0804351695415,
        "timestamp": "2025-12-13T13:34:34.722097+00:00",
        "meta_object_name": "TIANMU-1 14",
        "meta_object_id": "2023-205D",
        "meta_epoch": "2025-12-13T01:17:05.419680",
        "meta_mean_motion": 15.24515503,
        "meta_eccentricity": 0.00068397,
        "meta_inclination": 97.356,
        "meta_ra_of_asc_node": 6.0261,
        "meta_arg_of_pericenter": 271.4647,
        "meta_mean_anomaly": 88.5807,
        "meta_ephemeris_type": 0,
        "meta_classification_type": "U",
        "meta_norad_cat_id": 58648,
        "meta_element_set_no": 999,
        "meta_rev_at_epoch": 10912,
        "meta_bstar": 0.00037822162,
        "meta_mean_motion_dot": 9.241e-05,
        "meta_mean_motion_ddot": 0,
        "tle_line1": "1 58648U 23205D   25347.05353495  .00009241  00000+0  37822-3 0  9998",
        "tle_line2": "2 58648  97.3560   6.0261 0006839 271.4647  88.5807 15.24515503109125"
      },
      "geometry": {
        "type": "Point",
        "coordinates": [
          26.926331044193937,
          -69.66214165247015
        ]
      }
    },
    {
      "type": "Feature",
      "properties": {
        "norad_id": 58660,
        "name": "TIANMU-1 19",
        "group": "weather",
        "lat": -13.839201655157352,
        "lon": -83.24372584275426,
        "alt_km": 485.29607390800174,
        "timestamp": "2025-12-13T13:34:34.722112+00:00",
        "meta_object_name": "TIANMU-1 19",
        "meta_object_id": "2023-208A",
        "meta_epoch": "2025-12-13T00:09:19.892736",
        "meta_mean_motion": 15.27857618,
        "meta_eccentricity": 0.00041283,
        "meta_inclination": 97.4383,
        "meta_ra_of_asc_node": 98.0427,
        "meta_arg_of_pericenter": 251.9024,
        "meta_mean_anomaly": 108.1766,
        "meta_ephemeris_type": 0,
        "meta_classification_type": "U",
        "meta_norad_cat_id": 58660,
        "meta_element_set_no": 999,
        "meta_rev_at_epoch": 10886,
        "meta_bstar": 0.00051383359,
        "meta_mean_motion_dot": 0.00013915,
        "meta_mean_motion_ddot": 0,
        "tle_line1": "1 58660U 23208A   25347.00648024  .00013915  00000+0  51383-3 0  9996",
        "tle_line2": "2 58660  97.4383  98.0427 0004128 251.9024 108.1766 15.27857618108861"
      },
      "geometry": {
        "type": "Point",
        "coordinates": [
          -83.24372584275426,
          -13.839201655157352
        ]
      }
    },
    {
      "type": "Feature",
      "properties": {
        "norad_id": 58661,
        "name": "TIANMU-1 20",
        "group": "weather",
        "lat": -82.38245384709705,
        "lon": 176.48747057835692,
        "alt_km": 481.6940119408964,
        "timestamp": "2025-12-13T13:34:34.722127+00:00",
        "meta_object_name": "TIANMU-1 20",
        "meta_object_id": "2023-208B",
        "meta_epoch": "2025-12-12T23:49:35.574240",
        "meta_mean_motion": 15.29047726,
        "meta_eccentricity": 0.00063246,
        "meta_inclination": 97.4321,
        "meta_ra_of_asc_node": 98.4769,
        "meta_arg_of_pericenter": 264.8678,
        "meta_mean_anomaly": 95.184,
        "meta_ephemeris_type": 0,
        "meta_classification_type": "U",
        "meta_norad_cat_id": 58661,
        "meta_element_set_no": 999,
        "meta_rev_at_epoch": 10893,
        "meta_bstar": 0.00048311467,
        "meta_mean_motion_dot": 0.00013567,
        "meta_mean_motion_ddot": 0,
        "tle_line1": "1 58661U 23208B   25346.99277285  .00013567  00000+0  48311-3 0  9991",
        "tle_line2": "2 58661  97.4321  98.4769 0006324 264.8678  95.1840 15.29047726108934"
      },
      "geometry": {
        "type": "Point",
        "coordinates": [
          176.48747057835692,
          -82.38245384709705
        ]
      }
    },
    {
      "type": "Feature",
      "properties": {
        "norad_id": 58662,
        "name": "TIANMU-1 21",
        "group": "weather",
        "lat": -74.34682639697964,
        "lon": 128.74739479745327,
        "alt_km": 474.8411751835265,
        "timestamp": "2025-12-13T13:34:34.722144+00:00",
        "meta_object_name": "TIANMU-1 21",
        "meta_object_id": "2023-208C",
        "meta_epoch": "2025-12-12T23:47:46.025952",
        "meta_mean_motion": 15.31559136,
        "meta_eccentricity": 0.0005893,
        "meta_inclination": 97.4369,
        "meta_ra_of_asc_node": 100.3852,
        "meta_arg_of_pericenter": 258.9245,
        "meta_mean_anomaly": 101.1334,
        "meta_ephemeris_type": 0,
        "meta_classification_type": "U",
        "meta_norad_cat_id": 58662,
        "meta_element_set_no": 999,
        "meta_rev_at_epoch": 10903,
        "meta_bstar": 0.00051663797,
        "meta_mean_motion_dot": 0.00015689,
        "meta_mean_motion_ddot": 0,
        "tle_line1": "1 58662U 23208C   25346.99150493  .00015689  00000+0  51664-3 0  9995",
        "tle_line2": "2 58662  97.4369 100.3852 0005893 258.9245 101.1334 15.31559136109031"
      },
      "geometry": {
        "type": "Point",
        "coordinates": [
          128.74739479745327,
          -74.34682639697964
        ]
      }
    },
    {
      "type": "Feature",
      "properties": {
        "norad_id": 58663,
        "name": "TIANMU-1 22",
        "group": "weather",
        "lat": -14.317793737398373,
        "lon": -83.25134715324533,
        "alt_km": 487.64218682286446,
        "timestamp": "2025-12-13T13:34:34.722159+00:00",
        "meta_object_name": "TIANMU-1 22",
        "meta_object_id": "2023-208D",
        "meta_epoch": "2025-12-13T00:09:04.866912",
        "meta_mean_motion": 15.27611505,
        "meta_eccentricity": 0.00027117,
        "meta_inclination": 97.4377,
        "meta_ra_of_asc_node": 98.1015,
        "meta_arg_of_pericenter": 285.6039,
        "meta_mean_anomaly": 74.4901,
        "meta_ephemeris_type": 0,
        "meta_classification_type": "U",
        "meta_norad_cat_id": 58663,
        "meta_element_set_no": 999,
        "meta_rev_at_epoch": 10887,
        "meta_bstar": 0.00047948895,
        "meta_mean_motion_dot": 0.0001288,
        "meta_mean_motion_ddot": 0,
        "tle_line1": "1 58663U 23208D   25347.00630633  .00012880  00000+0  47949-3 0  9999",
        "tle_line2": "2 58663  97.4377  98.1015 0002711 285.6039  74.4901 15.27611505108877"
      },
      "geometry": {
        "type": "Point",
        "coordinates": [
          -83.25134715324533,
          -14.317793737398373
        ]
      }
    },
    {
      "type": "Feature",
      "properties": {
        "norad_id": 58700,
        "name": "TIANMU-1 15",
        "group": "weather",
        "lat": -44.23055828474734,
        "lon": 176.3642066656243,
        "alt_km": 494.8566916769187,
        "timestamp": "2025-12-13T13:34:34.722173+00:00",
        "meta_object_name": "TIANMU-1 15",
        "meta_object_id": "2024-004A",
        "meta_epoch": "2025-12-11T12:56:40.540704",
        "meta_mean_motion": 15.24670451,
        "meta_eccentricity": 0.00052437,
        "meta_inclination": 97.4631,
        "meta_ra_of_asc_node": 167.0136,
        "meta_arg_of_pericenter": 303.7498,
        "meta_mean_anomaly": 56.324,
        "meta_ephemeris_type": 0,
        "meta_classification_type": "U",
        "meta_norad_cat_id": 58700,
        "meta_element_set_no": 999,
        "meta_rev_at_epoch": 10716,
        "meta_bstar": 0.00086402607,
        "meta_mean_motion_dot": 0.00021326,
        "meta_mean_motion_ddot": 0,
        "tle_line1": "1 58700U 24004A   25345.53935811  .00021326  00000+0  86403-3 0  9991",
        "tle_line2": "2 58700  97.4631 167.0136 0005243 303.7498  56.3240 15.24670451107164"
      },
      "geometry": {
        "type": "Point",
        "coordinates": [
          176.3642066656243,
          -44.23055828474734
        ]
      }
    }
  ]
}